CCSDS_OMM_VERS = 2.0
CREATION_DATE  = 
ORIGINATOR     = 

OBJECT_NAME    = IDEFIX & ARIANE 42P R/B
OBJECT_ID      = 2002-021B
CENTER_NAME    = EARTH
REF_FRAME      = TEME
TIME_SYSTEM    = UTC
MEAN_ELEMENT_THEORY = SGP/SGP4

EPOCH          = 2025-12-05T19:12:55.152576
MEAN_MOTION    = 14.30942406
ECCENTRICITY   = .00128706
INCLINATION    = 98.5776
RA_OF_ASC_NODE = 274.5820
ARG_OF_PERICENTER = 102.3434
MEAN_ANOMALY   = 257.9190

EPHEMERIS_TYPE = 0
CLASSIFICATION_TYPE = U
NORAD_CAT_ID   = 27422
ELEMENT_SET_NO = 999
REV_AT_EPOCH   = 23059
BSTAR          = .2472805E-3
MEAN_MOTION_DOT = .607E-5
MEAN_MOTION_DDOT = 0

CCSDS_OMM_VERS = 2.0
CREATION_DATE  = 
ORIGINATOR     = 

OBJECT_NAME    = AQUA
OBJECT_ID      = 2002-022A
CENTER_NAME    = EARTH
REF_FRAME      = TEME
TIME_SYSTEM    = UTC
MEAN_ELEMENT_THEORY = SGP/SGP4

EPOCH          = 2025-12-05T21:55:12.842976
MEAN_MOTION    = 14.61783779
ECCENTRICITY   = .00008712
INCLINATION    = 98.4027
RA_OF_ASC_NODE = 300.6816
ARG_OF_PERICENTER = 113.0911
MEAN_ANOMALY   = 310.1076

EPHEMERIS_TYPE = 0
CLASSIFICATION_TYPE = U
NORAD_CAT_ID   = 27424
ELEMENT_SET_NO = 999
REV_AT_EPOCH   = 25503
BSTAR          = .48201288E-3
MEAN_MOTION_DOT = .2356E-4
MEAN_MOTION_DDOT = 0

CCSDS_OMM_VERS = 2.0
CREATION_DATE  = 
ORIGINATOR     = 

OBJECT_NAME    = CZ-4B R/B
OBJECT_ID      = 2002-024C
CENTER_NAME    = EARTH
REF_FRAME      = TEME
TIME_SYSTEM    = UTC
MEAN_ELEMENT_THEORY = SGP/SGP4

EPOCH          = 2025-12-05T21:03:17.313408
MEAN_MOTION    = 14.14525563
ECCENTRICITY   = .00491899
INCLINATION    = 98.9009
RA_OF_ASC_NODE = 28.6726
ARG_OF_PERICENTER = 289.7917
MEAN_ANOMALY   = 244.4028

EPHEMERIS_TYPE = 0
CLASSIFICATION_TYPE = U
NORAD_CAT_ID   = 27432
ELEMENT_SET_NO = 999
REV_AT_EPOCH   = 21597
BSTAR          = .92647823E-4
MEAN_MOTION_DOT = .135E-5
MEAN_MOTION_DDOT = 0

CCSDS_OMM_VERS = 2.0
CREATION_DATE  = 
ORIGINATOR     = 

OBJECT_NAME    = MIDORI II (ADEOS-II)
OBJECT_ID      = 2002-056A
CENTER_NAME    = EARTH
REF_FRAME      = TEME
TIME_SYSTEM    = UTC
MEAN_ELEMENT_THEORY = SGP/SGP4

EPOCH          = 2025-12-05T20:30:32.717376
MEAN_MOTION    = 14.29198652
ECCENTRICITY   = .00001934
INCLINATION    = 98.7625
RA_OF_ASC_NODE = 292.7751
ARG_OF_PERICENTER = 4.2423
MEAN_ANOMALY   = 355.8760

EPHEMERIS_TYPE = 0
CLASSIFICATION_TYPE = U
NORAD_CAT_ID   = 27597
ELEMENT_SET_NO = 999
REV_AT_EPOCH   = 19689
BSTAR          = .23716493E-3
MEAN_MOTION_DOT = .557E-5
MEAN_MOTION_DDOT = 0

CCSDS_OMM_VERS = 2.0
CREATION_DATE  = 
ORIGINATOR     = 

OBJECT_NAME    = H-2A R/B
OBJECT_ID      = 2002-056E
CENTER_NAME    = EARTH
REF_FRAME      = TEME
TIME_SYSTEM    = UTC
MEAN_ELEMENT_THEORY = SGP/SGP4

EPOCH          = 2025-12-05T21:53:04.500096
MEAN_MOTION    = 14.33667502
ECCENTRICITY   = .00714807
INCLINATION    = 98.3053
RA_OF_ASC_NODE = 298.9409
ARG_OF_PERICENTER = 81.1685
MEAN_ANOMALY   = 344.8447

EPHEMERIS_TYPE = 0
CLASSIFICATION_TYPE = U
NORAD_CAT_ID   = 27601
ELEMENT_SET_NO = 999
REV_AT_EPOCH   = 20067
BSTAR          = .22879468E-3
MEAN_MOTION_DOT = .612E-5
MEAN_MOTION_DDOT = 0

CCSDS_OMM_VERS = 2.0
CREATION_DATE  = 
ORIGINATOR     = 

OBJECT_NAME    = CZ-4B R/B
OBJECT_ID      = 2003-049C
CENTER_NAME    = EARTH
REF_FRAME      = TEME
TIME_SYSTEM    = UTC
MEAN_ELEMENT_THEORY = SGP/SGP4

EPOCH          = 2025-12-05T22:11:25.694880
MEAN_MOTION    = 14.54899659
ECCENTRICITY   = .00486546
INCLINATION    = 98.6781
RA_OF_ASC_NODE = 326.2313
ARG_OF_PERICENTER = 156.6452
MEAN_ANOMALY   = 203.6969

EPHEMERIS_TYPE = 0
CLASSIFICATION_TYPE = U
NORAD_CAT_ID   = 28059
ELEMENT_SET_NO = 999
REV_AT_EPOCH   = 17296
BSTAR          = .17253131E-3
MEAN_MOTION_DOT = .702E-5
MEAN_MOTION_DDOT = 0

CCSDS_OMM_VERS = 2.0
CREATION_DATE  = 
ORIGINATOR     = 

OBJECT_NAME    = CZ-2C R/B
OBJECT_ID      = 2004-012C
CENTER_NAME    = EARTH
REF_FRAME      = TEME
TIME_SYSTEM    = UTC
MEAN_ELEMENT_THEORY = SGP/SGP4

EPOCH          = 2025-12-05T22:03:30.369600
MEAN_MOTION    = 15.54842390
ECCENTRICITY   = .00167705
INCLINATION    = 97.7429
RA_OF_ASC_NODE = 31.9802
ARG_OF_PERICENTER = 296.9832
MEAN_ANOMALY   = 62.9708

EPHEMERIS_TYPE = 0
CLASSIFICATION_TYPE = U
NORAD_CAT_ID   = 28222
ELEMENT_SET_NO = 999
REV_AT_EPOCH   = 18966
BSTAR          = .72501754E-3
MEAN_MOTION_DOT = .48735E-3
MEAN_MOTION_DDOT = 0

CCSDS_OMM_VERS = 2.0
CREATION_DATE  = 
ORIGINATOR     = 

OBJECT_NAME    = SL-16 R/B
OBJECT_ID      = 2004-021B
CENTER_NAME    = EARTH
REF_FRAME      = TEME
TIME_SYSTEM    = UTC
MEAN_ELEMENT_THEORY = SGP/SGP4

EPOCH          = 2025-12-05T16:35:54.856032
MEAN_MOTION    = 14.14582423
ECCENTRICITY   = .00056749
INCLINATION    = 71.0023
RA_OF_ASC_NODE = 69.7553
ARG_OF_PERICENTER = 210.2545
MEAN_ANOMALY   = 149.8250

EPHEMERIS_TYPE = 0
CLASSIFICATION_TYPE = U
NORAD_CAT_ID   = 28353
ELEMENT_SET_NO = 999
REV_AT_EPOCH   = 10954
BSTAR          = -.33035316E-4
MEAN_MOTION_DOT = -.111E-5
MEAN_MOTION_DDOT = 0

CCSDS_OMM_VERS = 2.0
CREATION_DATE  = 
ORIGINATOR     = 

OBJECT_NAME    = CZ-4B R/B
OBJECT_ID      = 2004-035C
CENTER_NAME    = EARTH
REF_FRAME      = TEME
TIME_SYSTEM    = UTC
MEAN_ELEMENT_THEORY = SGP/SGP4

EPOCH          = 2025-12-05T22:39:28.802304
MEAN_MOTION    = 15.27204829
ECCENTRICITY   = .00319972
INCLINATION    = 97.3607
RA_OF_ASC_NODE = 10.3794
ARG_OF_PERICENTER = 302.8117
MEAN_ANOMALY   = 57.0041

EPHEMERIS_TYPE = 0
CLASSIFICATION_TYPE = U
NORAD_CAT_ID   = 28415
ELEMENT_SET_NO = 999
REV_AT_EPOCH   = 16559
BSTAR          = .41373703E-3
MEAN_MOTION_DOT = .11128E-3
MEAN_MOTION_DDOT = 0

CCSDS_OMM_VERS = 2.0
CREATION_DATE  = 
ORIGINATOR     = 

OBJECT_NAME    = CZ-2C R/B
OBJECT_ID      = 2004-046B
CENTER_NAME    = EARTH
REF_FRAME      = TEME
TIME_SYSTEM    = UTC
MEAN_ELEMENT_THEORY = SGP/SGP4

EPOCH          = 2025-12-05T17:40:42.678912
MEAN_MOTION    = 14.26935637
ECCENTRICITY   = .0140639
INCLINATION    = 98.1983
RA_OF_ASC_NODE = 255.5500
ARG_OF_PERICENTER = 72.8493
MEAN_ANOMALY   = 288.8034

EPHEMERIS_TYPE = 0
CLASSIFICATION_TYPE = U
NORAD_CAT_ID   = 28480
ELEMENT_SET_NO = 999
REV_AT_EPOCH   = 9510
BSTAR          = .13690445E-3
MEAN_MOTION_DOT = .329E-5
MEAN_MOTION_DDOT = 0

CCSDS_OMM_VERS = 2.0
CREATION_DATE  = 
ORIGINATOR     = 

OBJECT_NAME    = ARIANE 5 R/B
OBJECT_ID      = 2004-049H
CENTER_NAME    = EARTH
REF_FRAME      = TEME
TIME_SYSTEM    = UTC
MEAN_ELEMENT_THEORY = SGP/SGP4

EPOCH          = 2025-12-05T21:56:51.810720
MEAN_MOTION    = 14.84987072
ECCENTRICITY   = .00834693
INCLINATION    = 98.2520
RA_OF_ASC_NODE = 139.9511
ARG_OF_PERICENTER = 295.3832
MEAN_ANOMALY   = 63.8757

EPHEMERIS_TYPE = 0
CLASSIFICATION_TYPE = U
NORAD_CAT_ID   = 28499
ELEMENT_SET_NO = 999
REV_AT_EPOCH   = 13187
BSTAR          = .20644591E-3
MEAN_MOTION_DOT = .1807E-4
MEAN_MOTION_DDOT = 0

CCSDS_OMM_VERS = 2.0
CREATION_DATE  = 
ORIGINATOR     = 

OBJECT_NAME    = CZ-2D R/B
OBJECT_ID      = 2005-024B
CENTER_NAME    = EARTH
REF_FRAME      = TEME
TIME_SYSTEM    = UTC
MEAN_ELEMENT_THEORY = SGP/SGP4

EPOCH          = 2025-12-05T22:56:42.322560
MEAN_MOTION    = 15.52675120
ECCENTRICITY   = .00065255
INCLINATION    = 97.3627
RA_OF_ASC_NODE = 347.2278
ARG_OF_PERICENTER = 28.8213
MEAN_ANOMALY   = 331.3399

EPHEMERIS_TYPE = 0
CLASSIFICATION_TYPE = U
NORAD_CAT_ID   = 28738
ELEMENT_SET_NO = 999
REV_AT_EPOCH   = 12520
BSTAR          = .54513893E-3
MEAN_MOTION_DOT = .33618E-3
MEAN_MOTION_DDOT = 0

