IDEFIX & ARIANE 42P R/B 
1 27422U 02021B   25339.80063834  .00000607  00000+0  24728-3 0  9994
2 27422  98.5776 274.5820 0012870 102.3434 257.9190 14.30942406230599
AQUA                    
1 27424U 02022A   25339.91334309  .00002356  00000+0  48201-3 0  9992
2 27424  98.4027 300.6816 0000871 113.0911 310.1076 14.61783779255033
CZ-4B R/B               
1 27432U 02024C   25339.87728372  .00000135  00000+0  92648-4 0  9993
2 27432  98.9009  28.6726 0049189 289.7917 244.4028 14.14525563215974
MIDORI II (ADEOS-II)    
1 27597U 02056A   25339.85454534  .00000557  00000+0  23716-3 0  9991
2 27597  98.7625 292.7751 0000193   4.2423 355.8760 14.29198652196894
H-2A R/B                
1 27601U 02056E   25339.91185764  .00000612  00000+0  22879-3 0  9991
2 27601  98.3053 298.9409 0071480  81.1685 344.8447 14.33667502200672
CZ-4B R/B               
1 28059U 03049C   25339.92460295  .00000702  00000+0  17253-3 0  9998
2 28059  98.6781 326.2313 0048654 156.6452 203.6969 14.54899659172961
CZ-2C R/B               
1 28222U 04012C   25339.91910150  .00048735  00000+0  72502-3 0  9996
2 28222  97.7429  31.9802 0016770 296.9832  62.9708 15.54842390189662
SL-16 R/B               
1 28353U 04021B   25339.69160713 -.00000111  00000+0 -33035-4 0  9995
2 28353  71.0023  69.7553 0005674 210.2545 149.8250 14.14582423109544
CZ-4B R/B               
1 28415U 04035C   25339.94408336  .00011128  00000+0  41374-3 0  9995
2 28415  97.3607  10.3794 0031997 302.8117  57.0041 15.27204829165592
CZ-2C R/B               
1 28480U 04046B   25339.73660508  .00000329  00000+0  13690-3 0  9998
2 28480  98.1983 255.5500 0140639  72.8493 288.8034 14.26935637 95104
ARIANE 5 R/B            
1 28499U 04049H   25339.91448855  .00001807  00000+0  20645-3 0  9990
2 28499  98.2520 139.9511 0083469 295.3832  63.8757 14.84987072131877
CZ-2D R/B               
1 28738U 05024B   25339.95604540  .00033618  00000+0  54514-3 0  9996
2 28738  97.3627 347.2278 0006525  28.8213 331.3399 15.52675120125204
